MALLIGYONG-1            
1 58400U 23179A   24144.19800397  .00008346  00000+0  36072-3 0  9992
2 58400  97.4073  31.4376 0008860   2.5018 357.6261 15.22690655 27922
